STARLINK-11328 [DTC]    
1 61880C 24204G   26181.64006944 -.00086140  00000+0 -70964-3 0  1818
2 61880  53.1562 159.5156 0001067  85.1719 287.6854 15.69750051    14
STARLINK-11329 [DTC]    
1 61881C 24204H   26181.69979167 -.00073912  00000+0 -60902-3 0  1814
2 61881  53.1564 159.1633 0001135  86.4036 291.8816 15.69739023    16
STARLINK-11398 [DTC]    
1 61882C 24204J   26181.69840278 -.00063831  00000+0 -52581-3 0  1818
2 61882  53.1570 159.1131 0000976  97.2751 300.8923 15.69740878    13
STARLINK-11383 [DTC]    
1 61883C 24204K   26181.66090278 -.00075656  00000+0 -62315-3 0  1817
2 61883  53.1570 159.1845 0001201  86.0974 155.5067 15.69749180    10
STARLINK-11359 [DTC]    
1 61884C 24204L   26181.66437500 -.00054855  00000+0 -45188-3 0  1818
2 61884  53.1570 159.2239 0001164  86.7310 146.7672 15.69735399    19
STARLINK-11301 [DTC]    
1 61885C 24204M   26181.64354167 -.00057451  00000+0 -47334-3 0  1814
2 61885  53.1570 159.2130 0001162  95.4394  75.7419 15.69732992    13
STARLINK-11351 [DTC]    
1 61886C 24204N   26181.70604167 -.00074800  00000+0 -61630-3 0  1812
2 61886  53.1571 158.8471 0001087  88.9697 103.3487 15.69741117    19
STARLINK-32410          
1 61887C 24204P   26181.68381944 -.00073697  00000+0 -21779-2 0  1817
2 61887  53.1596 320.2067 0001203  90.1404   0.0153 15.34420952    10
STARLINK-32377          
1 61888C 24204Q   26181.66020833 -.00073832  00000+0 -21817-2 0  1817
2 61888  53.1591 320.2927 0001199  87.4915 243.8013 15.34422537    14
STARLINK-32292          
1 61889C 24204R   26181.70604167 -.00047038  00000+0 -13900-2 0  1814
2 61889  53.1587 320.2164 0001285  91.2164  63.6272 15.34407094    14
STARLINK-32501          
1 61890C 24204S   26181.70187500 -.00063234  00000+0 -18687-2 0  1816
2 61890  53.1589 320.3961 0001281  92.4252 317.9817 15.34415493    13
STARLINK-32383          
1 61891C 24204T   26181.70465278 -.00075330  00000+0 -22262-2 0  1812
2 61891  53.1588 320.3125 0001334  82.9866  17.6523 15.34419794    15
STARLINK-32239          
1 61892C 24204U   26181.67409722 -.00081645  00000+0 -24126-2 0  1818
2 61892  53.1597 321.9243 0001392  90.2754 175.5427 15.34426885    12
STARLINK-32489          
1 61893C 24204V   26181.64840278 -.00078192  00000+0 -23107-2 0  1812
2 61893  53.1597 320.2803 0001240  87.1869 213.7455 15.34423233    11
STARLINK-32303          
1 61912C 24207A   26181.63451389 -.00042248  00000+0 -15296-2 0  1810
2 61912  43.0030   3.8451 0001306 261.7469 185.4718 15.27613565    13
STARLINK-32434          
1 61913C 24207B   26181.68243056 -.00070387  00000+0 -25491-2 0  1819
2 61913  43.0019   3.9340 0001642 268.9127 293.5481 15.27616730    17
STARLINK-32460          
1 61914C 24207C   26181.63243056 -.00033251  00000+0 -12040-2 0  1810
2 61914  43.0004   3.4864 0001491 261.1849 330.2121 15.27605279    12
STARLINK-32559          
1 61915C 24207D   26181.68104167  .00478450  00000+0  12193-1 0  1815
2 61915  43.0006   2.8199 0001734 279.9602  21.9513 15.38462295    13
STARLINK-32541          
1 61916C 24207E   26181.69215278 -.00071569  00000+0 -25923-2 0  1811
2 61916  43.0034   7.2965 0001459 264.3924   8.4228 15.27613644    11
STARLINK-32544          
1 61917C 24207F   26181.63868056 -.00040725  00000+0 -14746-2 0  1815
2 61917  43.0029   3.7359 0001365 263.0158 242.5240 15.27607477    17
STARLINK-32555          
1 61918C 24207G   26181.66715278 -.00069161  00000+0 -25042-2 0  1812
2 61918  43.0025   7.5877 0001600 269.4099 162.0752 15.27623465    16
STARLINK-32547          
1 61919C 24207H   26181.66715278 -.00064390  00000+0 -23316-2 0  1814
2 61919  43.0003   3.3073 0001372 264.6503 150.8375 15.27618834    18
STARLINK-32616          
1 61920C 24207J   26181.68659722 -.00091244  00000+0 -33047-2 0  1819
2 61920  43.0033   3.6526 0001348 266.1671  65.3652 15.27625740    17
STARLINK-32605          
1 61921C 24207K   26181.68937500 -.00069700  00000+0 -25236-2 0  1816
2 61921  43.0021   3.3986 0001438 267.8576 178.0093 15.27624654    18
STARLINK-32579          
1 61922C 24207L   26181.64493056 -.00063550  00000+0 -23010-2 0  1811
2 61922  43.0034   7.5115 0001403 264.3195 129.7210 15.27621127    10
STARLINK-32537          
1 61923C 24207M   26181.63868056 -.00012982  00000+0 -47008-3 0  1814
2 61923  43.0013   7.7794 0001523 269.8545 350.7292 15.27593312    15
STARLINK-32564          
1 61924C 24207N   26181.64423611 -.00018702  00000+0 -67726-3 0  1815
2 61924  43.0034   7.6647 0001695 270.9584  55.5736 15.27594060    15
STARLINK-32536          
1 61925C 24207P   26181.65951389 -.00048320  00000+0 -17500-2 0  1818
2 61925  43.0009   7.7122 0001522 260.5370  93.5373 15.27606092    12
STARLINK-32624          
1 61926C 24207Q   26181.64493056 -.00005929  00000+0 -21502-3 0  1816
2 61926  43.0005   3.3446 0001515 265.8140  62.7954 15.27538694    10
STARLINK-32622          
1 61927C 24207R   26181.66784722 -.00061360  00000+0 -22220-2 0  1810
2 61927  43.0005   3.3187 0001448 261.1599 151.0834 15.27615220    15
STARLINK-32620          
1 61928C 24207S   26181.64631944 -.00093233  00000+0 -33725-2 0  1812
2 61928  43.0033   3.8264 0001295 261.6869 229.3529 15.27667313    13
STARLINK-32609          
1 61929C 24207T   26181.63798611  .00009931  00000+0  36034-3 0  1814
2 61929  43.0030   3.7714 0001117 249.6006 237.9364 15.27516663    15
STARLINK-32567          
1 61930C 24207U   26181.68659722 -.00098738  00000+0 -35756-2 0  1814
2 61930  43.0035   0.2142 0001567 266.2758  48.4483 15.27634068    14
STARLINK-32420          
1 61931C 24207V   26181.63937500 -.00034132  00000+0 -12358-2 0  1814
2 61931  43.0010   3.5792 0001276 263.9533 309.0826 15.27607637    16
STARLINK-32354          
1 61932C 24207W   26181.63868056 -.00051651  00000+0 -18699-2 0  1813
2 61932  43.0037   7.6442 0001590 265.2816  51.9074 15.27619156    18
STARLINK-32361          
1 61933C 24207X   26181.63798611 -.00044105  00000+0 -15952-2 0  1818
2 61933  43.0007   4.1922 0001504 262.8087  40.8139 15.27647583    13
STARLINK-32500          
1 61935C 24207Z   26181.71090278 -.00049303  00000+0 -17857-2 0  1814
2 61935  43.0033   7.0854 0001364 276.9736 141.5087 15.27604104    14
STARLINK-11407 [DTC]    
1 61939C 24209A   26181.67548611 -.00075356  00000+0 -62055-3 0  1812
2 61939  53.1569 174.0592 0001091  86.2311  23.2548 15.69754386    18
STARLINK-11337 [DTC]    
1 61940C 24209B   26181.67687500 -.00053168  00000+0 -43807-3 0  1816
2 61940  53.1571 173.9953 0001172  94.9169  50.1591 15.69730257    17
STARLINK-11353 [DTC]    
1 61941C 24209C   26181.66784722 -.00069345  00000+0 -57113-3 0  1819
2 61941  53.1569 173.9829 0001183  85.6496  36.1191 15.69747531    12
STARLINK-11320 [DTC]    
1 61942C 24209D   26181.64770833 -.00061320  00000+0 -50504-3 0  1818
2 61942  53.1565 174.7601 0001079  80.9646 314.0967 15.69743603    10
STARLINK-11425 [DTC]    
1 61943C 24209E   26181.63590278 -.00021696  00000+0 -17866-3 0  1817
2 61943  53.1566 174.7617 0001189  81.0945 274.9539 15.69727315    16
STARLINK-11422 [DTC]    
1 61944C 24209F   26181.66993056 -.00089399  00000+0 -73626-3 0  1812
2 61944  53.1567 174.5367 0001230  86.1468 130.0331 15.69758726    13
STARLINK-11421 [DTC]    
1 61945C 24209G   26181.71020833 -.00058438  00000+0 -48145-3 0  1811
2 61945  53.1565 174.2812 0001149  95.5602  16.0966 15.69734638    10
STARLINK-11410 [DTC]    
1 61946C 24209H   26181.63659722 -.00037773  00000+0 -31104-3 0  1814
2 61946  53.1561 174.5867 0001208  82.8930   0.2897 15.69736872    19
STARLINK-11390 [DTC]    
1 61947C 24209J   26181.68104167 -.00104130  00000+0 -85771-3 0  1819
2 61947  53.1562 174.3118 0001124  87.5452 274.6714 15.69762206    11
STARLINK-11414 [DTC]    
1 61948C 24209K   26181.66229167 -.00059937  00000+0 -49357-3 0  1810
2 61948  53.1569 174.1767 0001052  88.5104 278.6410 15.69746774    11
STARLINK-11424 [DTC]    
1 61949C 24209L   26181.64631944 -.00031020  00000+0 -25550-3 0  1811
2 61949  53.1567 174.3122 0001052  96.1670 152.9419 15.69726593    10
STARLINK-11423 [DTC]    
1 61950C 24209M   26181.70812500 -.00111090  00000+0 -91520-3 0  1815
2 61950  53.1562 174.1237 0001105  84.3833  98.7064 15.69762500    12
STARLINK-11395 [DTC]    
1 61951C 24209N   26181.68937500 -.00058297  00000+0 -48008-3 0  1813
2 61951  53.1562 174.1553 0001177  87.0224  17.7855 15.69744914    15
STARLINK-32572          
1 61952C 24209P   26181.67965278 -.00049666  00000+0 -16730-2 0  1812
2 61952  53.1601 337.3764 0001011  65.8122 128.4477 15.30234657    11
STARLINK-32585          
1 61953C 24209Q   26181.69215278 -.00007910  00000+0 -14193-3 0  1811
2 61953  53.1586 331.0247 0001199  79.4685 125.6005 15.49312076    11
STARLINK-32574          
1 61954C 24209R   26181.64284722 -.00030598  00000+0 -54902-3 0  1817
2 61954  53.1587 331.2327 0001116  91.3164 211.8257 15.49324536    19
STARLINK-32583          
1 61955C 24209S   26181.67270833 -.01558200  00000+0 -31427-1 0  1810
2 61955  53.1595 330.6678 0000764  67.6428 253.8689 15.46729008    13
STARLINK-32273          
1 61956C 24209T   26181.68798611 -.00066634  00000+0 -22464-2 0  1817
2 61956  53.1596 337.3892 0001349  86.6059 124.6144 15.30216553    18
STARLINK-32359          
1 61957C 24209U   26181.66298611 -.01548900  00000+0 -33017-1 0  1818
2 61957  53.1597 330.6021 0000831  70.4874 253.9984 15.45105176    13
STARLINK-32566          
1 61958C 24209V   26181.68659722 -.01428300  00000+0 -40105-1 0  1812
2 61958  53.1599 330.3901 0001004  75.3226  72.6243 15.36699981    14
STARLINK-32499          
1 61959C 24210A   26181.67687500  .00062392  00000+0  22610-2 0  1813
2 61959  43.0025 261.3382 0001381 274.3623 117.9091 15.27529972    19
STARLINK-32372          
1 61960C 24210B   26181.65187500  .00060436  00000+0  21891-2 0  1815
2 61960  43.0023 261.5796 0001648 279.4748 292.6140 15.27546975    18
